NORAD_CAT_ID,OBJECT_NAME,OBJECT_TYPE,EPOCH,MEAN_MOTION,ECCENTRICITY,INCLINATION,RA_OF_ASC_NODE,ARG_OF_PERICENTER,MEAN_ANOMALY,BSTAR,MEAN_MOTION_DOT,MEAN_MOTION_DDOT,TLE_LINE0,TLE_LINE1,TLE_LINE2,SEMIMAJOR_AXIS,PERIOD,APOGEE,PERIGEE,DECAYED
52355.0,STARLINK-3877,PAYLOAD,2024-01-04 17:48:13,15.08839626,0.0001296,53.2158,167.7801,95.4341,264.6799,3.5916e-05,2.84e-06,0.0,0 STARLINK-3877,1 52355U 22045AA  24004.74182239  .00000284  00000-0  35916-4 0  9991,2 52355  53.2158 167.7801 0001296  95.4341 264.6799 15.08839626 95779,6917.882,95.438,540.643,538.85,0.0
52355.0,STARLINK-3877,PAYLOAD,2024-01-05 11:17:28,15.08832874,0.0001292,53.216,164.509,92.3903,267.7237,2.8172e-05,1.6e-06,0.0,0 STARLINK-3877,1 52355U 22045AA  24005.47046899  .00000160  00000-0  28172-4 0  9992,2 52355  53.2160 164.5090 0001292  92.3903 267.7237 15.08832874 95884,6917.902,95.438,540.661,538.873,0.0
52355.0,STARLINK-3877,PAYLOAD,2024-01-05 14:28:14,15.08832748,0.00013,53.216,163.9145,89.76,270.3541,2.7145e-05,1.44e-06,0.0,0 STARLINK-3877,1 52355U 22045AA  24005.60294990  .00000144  00000-0  27145-4 0  9995,2 52355  53.2160 163.9145 0001300  89.7600 270.3541 15.08832748 95903,6917.903,95.438,540.667,538.868,0.0
52355.0,STARLINK-3877,PAYLOAD,2024-01-05 17:39:01,15.08833536,0.0001308,53.216,163.3197,89.8225,270.2917,3.2497e-05,2.29e-06,0.0,0 STARLINK-3877,1 52355U 22045AA  24005.73542977  .00000229  00000-0  32497-4 0  9990,2 52355  53.2160 163.3197 0001308  89.8225 270.2917 15.08833536 95920,6917.9,95.438,540.67,538.86,0.0
52355.0,STARLINK-3877,PAYLOAD,2024-01-06 19:05:11,15.08841603,0.0001351,53.2164,158.5615,89.2453,270.8694,7.2384e-05,8.64e-06,0.0,0 STARLINK-3877,1 52355U 22045AA  24006.79526639  .00000864  00000-0  72384-4 0  9998,2 52355  53.2164 158.5615 0001351  89.2453 270.8694 15.08841603 96080,6917.875,95.437,540.675,538.806,0.0
52355.0,STARLINK-3877,PAYLOAD,2024-01-07 09:23:39,15.0883517,0.0001346,53.2161,155.8869,89.4187,270.6959,5.117e-05,5.26e-06,0.0,0 STARLINK-3877,1 52355U 22045AA  24007.39143216  .00000526  00000-0  51170-4 0  9996,2 52355  53.2161 155.8869 0001346  89.4187 270.6959 15.08835170 96172,6917.895,95.438,540.691,538.829,0.0
52355.0,STARLINK-3877,PAYLOAD,2024-01-07 14:09:49,15.08836118,0.0001328,53.2161,154.9947,90.0255,270.089,5.6417e-05,6.1e-06,0.0,0 STARLINK-3877,1 52355U 22045AA  24007.59015211  .00000610  00000-0  56417-4 0  9994,2 52355  53.2161 154.9947 0001328  90.0255 270.0890 15.08836118 96208,6917.892,95.438,540.676,538.839,0.0
52355.0,STARLINK-3877,PAYLOAD,2024-01-07 17:20:35,15.08842734,0.0001328,53.2162,154.3997,90.4174,269.697,3.5149e-05,2.72e-06,0.0,0 STARLINK-3877,1 52355U 22045AA  24007.72262882  .00000272  00000-0  35149-4 0  9990,2 52355  53.2162 154.3997 0001328  90.4174 269.6970 15.08842734 96228,6917.872,95.437,540.656,538.818,0.0
52355.0,STARLINK-3877,PAYLOAD,2024-01-08 14:00:35,15.08840548,0.0001299,53.2162,150.5344,91.8923,268.2218,0.00013518,1.864e-05,0.0,0 STARLINK-3877,1 52355U 22045AA  24008.58374608  .00001864  00000-0  13518-3 0  9998,2 52355  53.2162 150.5344 0001299  91.8923 268.2218 15.08840548 96351,6917.879,95.438,540.642,538.845,0.0
52355.0,STARLINK-3877,PAYLOAD,2024-01-08 15:35:58,15.08841127,0.0001292,53.2163,150.2371,91.1222,268.9918,0.00014527,2.025e-05,0.0,0 STARLINK-3877,1 52355U 22045AA  24008.64998540  .00002025  00000-0  14527-3 0  9993,2 52355  53.2163 150.2371 0001292  91.1222 268.9918 15.08841127 96366,6917.877,95.437,540.636,538.848,0.0
52355.0,STARLINK-3877,PAYLOAD,2024-01-09 12:15:59,15.08841334,0.0001314,53.2162,146.3719,84.5407,275.5735,2.5029e-05,1.1e-06,0.0,0 STARLINK-3877,1 52355U 22045AA  24009.51110882  .00000110  00000-0  25029-4 0  9998,2 52355  53.2162 146.3719 0001314  84.5407 275.5735 15.08841334 96498,6917.876,95.437,540.65,538.832,0.0
52355.0,STARLINK-3877,PAYLOAD,2024-01-09 13:51:22,15.08842353,0.0001296,53.2162,146.0746,84.8746,275.2394,3.2547e-05,2.3e-06,0.0,0 STARLINK-3877,1 52355U 22045AA  24009.57734774  .00000230  00000-0  32547-4 0  9992,2 52355  53.2162 146.0746 0001296  84.8746 275.2394 15.08842353 96505,6917.873,95.437,540.635,538.842,0.0
52355.0,STARLINK-3877,PAYLOAD,2024-01-09 18:37:31,15.08847086,0.0001267,53.2162,145.1815,95.7009,264.4127,6.5976e-05,7.62e-06,0.0,0 STARLINK-3877,1 52355U 22045AA  24009.77606255  .00000762  00000-0  65976-4 0  9998,2 52355  53.2162 145.1815 0001267  95.7009 264.4127 15.08847086 96538,6917.859,95.437,540.6,538.847,0.0
52355.0,STARLINK-3877,PAYLOAD,2024-01-10 10:31:24,15.08835867,0.0001355,53.2159,142.2093,74.7993,285.3149,-3.0007e-05,-7.65e-06,0.0,0 STARLINK-3877,1 52355U 22045AA  24010.43847363 -.00000765  00000-0 -30007-4 0  9992,2 52355  53.2159 142.2093 0001355  74.7993 285.3149 15.08835867 96638,6917.893,95.438,540.695,538.821,0.0
52355.0,STARLINK-3877,PAYLOAD,2024-01-10 13:42:09,15.08842077,0.0001324,53.216,141.6117,101.1722,258.9419,-2.7216e-05,-7.21e-06,0.0,0 STARLINK-3877,1 52355U 22045AA  24010.57094837 -.00000721  00000-0 -27216-4 0  9997,2 52355  53.2160 141.6117 0001324 101.1722 258.9419 15.08842077 96650,6917.874,95.437,540.655,538.823,0.0
52355.0,STARLINK-3877,PAYLOAD,2024-01-11 13:32:56,15.08843251,0.0001257,53.216,137.1518,98.4853,261.6281,4.2914e-05,3.95e-06,0.0,0 STARLINK-3877,1 52355U 22045AA  24011.56454628  .00000395  00000-0  42914-4 0  9992,2 52355  53.2160 137.1518 0001257  98.4853 261.6281 15.08843251 96803,6917.87,95.437,540.605,538.866,0.0
52355.0,STARLINK-3877,PAYLOAD,2024-01-11 18:19:05,15.08849423,0.0001277,53.2162,136.2592,99.1281,260.9856,9.6375e-05,1.247e-05,0.0,0 STARLINK-3877,1 52355U 22045AA  24011.76326049  .00001247  00000-0  96375-4 0  9996,2 52355  53.2162 136.2592 0001277  99.1281 260.9856 15.08849423 96832,6917.852,95.437,540.6,538.833,0.0
52355.0,STARLINK-3877,PAYLOAD,2024-01-12 11:48:21,15.08832037,0.0001315,53.2162,132.989,90.9898,269.1245,8.6209e-06,-1.51e-06,0.0,0 STARLINK-3877,1 52355U 22045AA  24012.49191888 -.00000151  00000-0  86209-5 0  9998,2 52355  53.2162 132.9890 0001315  90.9898 269.1245 15.08832037 96940,6917.905,95.438,540.679,538.86,0.0
52355.0,STARLINK-3877,PAYLOAD,2024-01-12 13:23:44,15.08834658,0.0001307,53.2161,132.6925,86.4403,273.6738,3.4498e-05,2.61e-06,0.0,0 STARLINK-3877,1 52355U 22045AA  24012.55815730  .00000261  00000-0  34498-4 0  9997,2 52355  53.2161 132.6925 0001307  86.4403 273.6738 15.08834658 96957,6917.897,95.438,540.666,538.858,0.0
52355.0,STARLINK-3877,PAYLOAD,2024-01-13 11:39:08,15.08843719,0.0001318,53.2162,128.5282,98.5378,261.5763,3.2832e-05,2.35e-06,0.0,0 STARLINK-3877,1 52355U 22045AA  24013.48551470  .00000235  00000-0  32832-4 0  9999,2 52355  53.2162 128.5282 0001318  98.5378 261.5763 15.08843719 97093,6917.869,95.437,540.646,538.822,0.0
52355.0,STARLINK-3877,PAYLOAD,2024-01-13 13:14:31,15.08844818,0.000135,53.2155,128.2311,98.4665,261.648,7.4856e-05,9.04e-06,0.0,0 STARLINK-3877,1 52355U 22045AA  24013.55175217  .00000904  00000-0  74856-4 0  9993,2 52355  53.2155 128.2311 0001350  98.4665 261.6480 15.08844818 97109,6917.866,95.437,540.665,538.797,0.0
52355.0,STARLINK-3877,PAYLOAD,2024-01-14 13:05:18,15.08849217,0.0001392,53.2152,123.7712,104.9599,255.1548,-9.0882e-06,-4.33e-06,0.0,0 STARLINK-3877,1 52355U 22045AA  24014.54535086 -.00000433  00000-0 -90882-5 0  9994,2 52355  53.2152 123.7712 0001392 104.9599 255.1548 15.08849217 97253,6917.852,95.437,540.68,538.754,0.0
52355.0,STARLINK-3877,PAYLOAD,2024-01-14 14:40:41,15.08846099,0.000134,53.2155,123.4739,96.3464,263.768,0.00024015,3.537e-05,0.0,0 STARLINK-3877,1 52355U 22045AA  24014.61159357  .00003537  00000-0  24015-3 0  9994,2 52355  53.2155 123.4739 0001340  96.3464 263.7680 15.08846099 97268,6917.862,95.437,540.654,538.8,0.0
52355.0,STARLINK-3877,PAYLOAD,2024-01-14 16:16:04,15.08849446,0.0001392,53.2156,123.1756,100.4655,259.6494,0.00028618,4.271e-05,0.0,0 STARLINK-3877,1 52355U 22045AA  24014.67783147  .00004271  00000-0  28618-3 0  9999,2 52355  53.2156 123.1756 0001392 100.4655 259.6494 15.08849446 97278,6917.852,95.437,540.679,538.754,0.0
52355.0,STARLINK-3877,PAYLOAD,2024-01-15 11:20:42,15.08838474,0.0001326,53.2156,119.6081,99.7956,260.3186,1.0247e-05,-1.25e-06,0.0,0 STARLINK-3877,1 52355U 22045AA  24015.47271896 -.00000125  00000-0  10247-4 0  9996,2 52355  53.2156 119.6081 0001326  99.7956 260.3186 15.08838474 97399,6917.885,95.438,540.667,538.833,0.0
52355.0,STARLINK-3877,PAYLOAD,2024-01-15 14:31:29,15.08841599,0.0001339,53.2153,119.014,93.7002,266.4143,6.3007e-05,7.15e-06,0.0,0 STARLINK-3877,1 52355U 22045AA  24015.60519784  .00000715  00000-0  63007-4 0  9998,2 52355  53.2153 119.0140 0001339  93.7002 266.4143 15.08841599 97411,6917.876,95.437,540.667,538.814,0.0
52355.0,STARLINK-3877,PAYLOAD,2024-01-16 12:46:53,15.08844763,0.0001616,53.2151,114.8536,67.9624,292.1539,0.00020579,2.989e-05,0.0,0 STARLINK-3877,1 52355U 22045AA  24016.53255993  .00002989  00000-0  20579-3 0  9991,2 52355  53.2151 114.8536 0001616  67.9624 292.1539 15.08844763 97558,6917.866,95.437,540.849,538.613,0.0
52355.0,STARLINK-3877,PAYLOAD,2024-01-17 11:02:17,15.08839229,0.0001242,53.2153,110.6883,81.0956,279.0177,0.00013358,1.839e-05,0.0,0 STARLINK-3877,1 52355U 22045AA  24017.45992489  .00001839  00000-0  13358-3 0  9991,2 52355  53.2153 110.6883 0001242  81.0956 279.0177 15.08839229 97697,6917.883,95.438,540.607,538.889,0.0
52355.0,STARLINK-3877,PAYLOAD,2024-01-17 12:37:40,15.08839781,0.0001265,53.2155,110.3898,89.3058,270.8079,0.0001539,2.162e-05,0.0,0 STARLINK-3877,1 52355U 22045AA  24017.52616360  .00002162  00000-0  15390-3 0  9998,2 52355  53.2155 110.3898 0001265  89.3058 270.8079 15.08839781 97706,6917.881,95.438,540.621,538.871,0.0
52355.0,STARLINK-3877,PAYLOAD,2024-01-18 12:28:27,15.08848685,0.0001235,53.2156,105.93,82.2546,277.8586,0.00015881,2.241e-05,0.0,0 STARLINK-3877,1 52355U 22045AA  24018.51976060  .00002241  00000-0  15881-3 0  9997,2 52355  53.2156 105.9300 0001235  82.2546 277.8586 15.08848685 97855,6917.854,95.437,540.573,538.864,0.0
